IRIDIUM 155             
1 43573U 18061E   25107.87197295  .00000080  00000+0  21677-4 0  9995
2 43573  86.3979 234.3547 0001891  98.1077 262.0333 14.34218016352396
IRIDIUM 154             
1 43574U 18061F   25107.85294594  .00000090  00000+0  24930-4 0  9990
2 43574  86.3984 234.4751 0002233  95.0611 265.0840 14.34218007352444
IRIDIUM 163             
1 43575U 18061G   25107.83391758  .00000271  00000+0  89761-4 0  9993
2 43575  86.3983 234.4121 0002138  91.9373 268.2068 14.34217881352412
IRIDIUM 156             
1 43576U 18061H   25107.87831140  .00000572  00000+0  19725-3 0  9998
2 43576  86.3982 234.4002 0001889 102.2917 257.8490 14.34221153352412
IRIDIUM 164             
1 43577U 18061J   25107.85928912  .00000081  00000+0  21895-4 0  9998
2 43577  86.3983 234.4416 0002337 100.5363 259.6096 14.34217918352458
IRIDIUM 159             
1 43578U 18061K   25107.89734411  .00000166  00000+0  52140-4 0  9993
2 43578  86.3982 234.3715 0002344  93.8864 266.2600 14.34218466352428
IRIDIUM 180             
1 43922U 19002A   25107.68753465  .00000123  00000+0  36788-4 0  9992
2 43922  86.4024 171.4413 0002250  92.6210 267.5243 14.34217954328008
IRIDIUM 176             
1 43923U 19002B   25107.61318512  .00001700  00000+0  26557-3 0  9990
2 43923  86.6149 171.4711 0002025  85.2965 274.8483 14.72265995336630
IRIDIUM 168             
1 43924U 19002C   25107.61141874  .00000455  00000+0  15547-3 0  9999
2 43924  86.4027 171.5382 0002306  95.9752 264.1707 14.34221304327975
IRIDIUM 173             
1 43925U 19002D   25107.73827475  .00000111  00000+0  32648-4 0  9992
2 43925  86.4024 171.3920 0002103  92.3128 267.8308 14.34218319327971
IRIDIUM 169             
1 43926U 19002E   25107.77959311  .00000606  00000+0  19162-3 0  9996
2 43926  86.4289 202.9370 0000744 105.8777 254.2503 14.38605959329067
IRIDIUM 172             
1 43927U 19002F   25107.66216347  .00000455  00000+0  15554-3 0  9993
2 43927  86.4024 171.4300 0002470  89.2727 270.8751 14.34217283327978
IRIDIUM 175             
1 43928U 19002G   25107.06427504  .00000853  00000+0  13127-3 0  9993
2 43928  86.1477 127.7092 0001918 115.8522 244.2893 14.72241631336546
IRIDIUM 171             
1 43929U 19002H   25107.71290480  .00000058  00000+0  13497-4 0  9995
2 43929  86.4033 171.6676 0002378 103.6727 256.4734 14.34217960327979
IRIDIUM 170             
1 43930U 19002J   25107.68732887  .00001777  00000+0  27797-3 0  9991
2 43930  86.6150 171.4453 0002025 101.1191 259.0253 14.72253033336654
IRIDIUM 167             
1 43931U 19002K   25107.70656193  .00000052  00000+0  11367-4 0  9992
2 43931  86.4024 171.4305 0002141 106.9674 253.1757 14.34217966327979
IRIDIUM 181             
1 56726U 23068S   25107.83999157  .00000562  00000+0  16089-3 0  9990
2 56726  86.4521 234.4199 0002539 108.3196 251.8281 14.43322194101083
IRIDIUM 177             
1 56727U 23068T   25107.63526802  .00002442  00000+0  31798-3 0  9995
2 56727  86.2010 170.8571 0002371 100.9767 259.1721 14.80224958103417
IRIDIUM 174             
1 56728U 23068U   25107.68354919  .00001955  00000+0  30311-3 0  9997
2 56728  86.6146 171.5606 0002025  93.5212 266.6237 14.72670837103414
IRIDIUM 178             
1 56729U 23068V   25107.75955818  .00002844  00000+0  37079-3 0  9997
2 56729  86.6612 203.0311 0002452  98.1959 261.9541 14.80242332103432
IRIDIUM 179             
1 56730U 23068W   25107.88939528  .00003026  00000+0  39489-3 0  9993
2 56730  86.6840 210.6663 0002003  98.5339 261.6110 14.80219004103450
